[{"OBJECT_ID":"2014-055AZ","OBJECT_NAME":"ATLAS 5 CENTAUR DEB","NORAD_CAT_ID":"43994","OBJECT_TYPE":"DEBRIS","PERIOD":"795.739","INCLINATION":"21.9435","ECCENTRICITY":"0.45693080","MEAN_MOTION":"1.80963935","TLE_LINE1":"1 43994U 14055AZ  21268.13581624 -.00000169  00000-0  00000-0 0  9990","TLE_LINE2":"2 43994  21.9435 325.0562 4569308 207.4537 118.2174  1.80963935 19582"},{"OBJECT_ID":"2014-055BA","OBJECT_NAME":"ATLAS 5 CENTAUR DEB","NORAD_CAT_ID":"43995","OBJECT_TYPE":"DEBRIS","PERIOD":"761.793","INCLINATION":"21.5528","ECCENTRICITY":"0.48438770","MEAN_MOTION":"1.89027661","TLE_LINE1":"1 43995U 14055BA  21270.82121665 -.00000157  00000-0  00000-0 0  9992","TLE_LINE2":"2 43995  21.5528 306.3598 4843877 242.2439  60.7569  1.89027661 20494"},{"OBJECT_ID":"2014-055BB","OBJECT_NAME":"ATLAS 5 CENTAUR DEB","NORAD_CAT_ID":"43996","OBJECT_TYPE":"DEBRIS","PERIOD":"792.332","INCLINATION":"21.6301","ECCENTRICITY":"0.48124450","MEAN_MOTION":"1.81741924","TLE_LINE1":"1 43996U 14055BB  21270.80538180 -.00000174  00000-0  00000-0 0  9994","TLE_LINE2":"2 43996  21.6301 315.4042 4812445 222.6622  87.6933  1.81741924 19705"},{"OBJECT_ID":"2014-055BD","OBJECT_NAME":"ATLAS 5 CENTAUR DEB","NORAD_CAT_ID":"43998","OBJECT_TYPE":"DEBRIS","PERIOD":"784.350","INCLINATION":"21.5034","ECCENTRICITY":"0.51202580","MEAN_MOTION":"1.83591501","TLE_LINE1":"1 43998U 14055BD  21271.37180178 -.00000175  00000-0  00000-0 0  9990","TLE_LINE2":"2 43998  21.5034 306.3369 5120258 240.6111  58.9203  1.83591501 19693"},{"OBJECT_ID":"2014-055BE","OBJECT_NAME":"ATLAS 5 CENTAUR DEB","NORAD_CAT_ID":"43999","OBJECT_TYPE":"DEBRIS","PERIOD":"776.960","INCLINATION":"21.5961","ECCENTRICITY":"0.47273820","MEAN_MOTION":"1.85337715","TLE_LINE1":"1 43999U 14055BE  21271.10488504 -.00000166  00000-0  00000-0 0  9996","TLE_LINE2":"2 43999  21.5961 312.1130 4727382 229.4766  78.5060  1.85337715 20761"},{"OBJECT_ID":"2014-055BF","OBJECT_NAME":"ATLAS 5 CENTAUR DEB","NORAD_CAT_ID":"44000","OBJECT_TYPE":"DEBRIS","PERIOD":"776.907","INCLINATION":"21.3098","ECCENTRICITY":"0.51417410","MEAN_MOTION":"1.85350328","TLE_LINE1":"1 44000U 14055BF  21262.69854825 -.00000212  00000-0  00000-0 0  9999","TLE_LINE2":"2 44000  21.3098 297.9687 5141741 250.7327  48.2966  1.85350328 20596"},{"OBJECT_ID":"2014-055BH","OBJECT_NAME":"ATLAS 5 CENTAUR DEB","NORAD_CAT_ID":"44002","OBJECT_TYPE":"DEBRIS","PERIOD":"783.017","INCLINATION":"21.4985","ECCENTRICITY":"0.47779750","MEAN_MOTION":"1.83904159","TLE_LINE1":"1 44002U 14055BH  21271.16055850 -.00000167  00000-0  00000-0 0  9993","TLE_LINE2":"2 44002  21.4985 310.0799 4777975 230.3319  76.6047  1.83904159 20683"},{"OBJECT_ID":"2014-055BJ","OBJECT_NAME":"ATLAS 5 CENTAUR DEB","NORAD_CAT_ID":"44003","OBJECT_TYPE":"DEBRIS","PERIOD":"794.015","INCLINATION":"21.8963","ECCENTRICITY":"0.45543570","MEAN_MOTION":"1.81356815","TLE_LINE1":"1 44003U 14055BJ  21271.04087717 -.00000175  00000-0  00000-0 0  9997","TLE_LINE2":"2 44003  21.8963 324.0195 4554357 209.3822 114.6101  1.81356815 20201"},{"OBJECT_ID":"2014-055BL","OBJECT_NAME":"ATLAS 5 CENTAUR DEB","NORAD_CAT_ID":"44005","OBJECT_TYPE":"DEBRIS","PERIOD":"775.729","INCLINATION":"21.4717","ECCENTRICITY":"0.48157820","MEAN_MOTION":"1.85631836","TLE_LINE1":"1 44005U 14055BL  21270.44115553 -.00000162  00000-0  00000-0 0  9998","TLE_LINE2":"2 44005  21.4717 307.5932 4815782 235.5006  69.1712  1.85631836  6566"},{"OBJECT_ID":"2014-055BM","OBJECT_NAME":"ATLAS 5 CENTAUR DEB","NORAD_CAT_ID":"44006","OBJECT_TYPE":"DEBRIS","PERIOD":"763.412","INCLINATION":"21.4929","ECCENTRICITY":"0.49271460","MEAN_MOTION":"1.88626899","TLE_LINE1":"1 44006U 14055BM  21269.41055738 -.00000152  00000-0  00000-0 0  9991","TLE_LINE2":"2 44006  21.4929 303.5422 4927146 246.2667  55.3524  1.88626899 20719"},{"OBJECT_ID":"2014-055BN","OBJECT_NAME":"ATLAS 5 CENTAUR DEB","NORAD_CAT_ID":"44007","OBJECT_TYPE":"DEBRIS","PERIOD":"816.964","INCLINATION":"21.8311","ECCENTRICITY":"0.48100690","MEAN_MOTION":"1.76262309","TLE_LINE1":"1 44007U 14055BN  21270.63764217 -.00000150  00000-0  00000-0 0  9995","TLE_LINE2":"2 44007  21.8311 324.3446 4810069 205.9444 118.7402  1.76262309 19251"},{"OBJECT_ID":"2014-055BQ","OBJECT_NAME":"ATLAS 5 CENTAUR DEB","NORAD_CAT_ID":"44009","OBJECT_TYPE":"DEBRIS","PERIOD":"751.399","INCLINATION":"21.3873","ECCENTRICITY":"0.50376530","MEAN_MOTION":"1.91642614","TLE_LINE1":"1 44009U 14055BQ  21269.05017644 -.00000093  00000-0  00000-0 0  9992","TLE_LINE2":"2 44009  21.3873 294.3254 5037653 262.1839  40.0855  1.91642614 20886"},{"OBJECT_ID":"2014-055BR","OBJECT_NAME":"ATLAS 5 CENTAUR DEB","NORAD_CAT_ID":"44010","OBJECT_TYPE":"DEBRIS","PERIOD":"789.644","INCLINATION":"21.5632","ECCENTRICITY":"0.47016200","MEAN_MOTION":"1.82360587","TLE_LINE1":"1 44010U 14055BR  21263.15120685 -.00000192  00000-0  00000-0 0  9999","TLE_LINE2":"2 44010  21.5632 313.8494 4701620 222.3869  89.6031  1.82360587 19775"},{"OBJECT_ID":"2014-055BS","OBJECT_NAME":"ATLAS 5 CENTAUR DEB","NORAD_CAT_ID":"44011","OBJECT_TYPE":"DEBRIS","PERIOD":"713.984","INCLINATION":"21.4789","ECCENTRICITY":"0.52057180","MEAN_MOTION":"2.01685174","TLE_LINE1":"1 44011U 14055BS  21271.01983170 -.00000508  00000-0  00000-0 0  9991","TLE_LINE2":"2 44011  21.4789 274.4764 5205718 302.7739  17.2365  2.01685174   295"},{"OBJECT_ID":"2014-055BT","OBJECT_NAME":"ATLAS 5 CENTAUR DEB","NORAD_CAT_ID":"44012","OBJECT_TYPE":"DEBRIS","PERIOD":"822.037","INCLINATION":"22.0171","ECCENTRICITY":"0.46567990","MEAN_MOTION":"1.75174554","TLE_LINE1":"1 44012U 14055BT  21269.30478072 -.00000150  00000-0  00000-0 0  9994","TLE_LINE2":"2 44012  22.0171 329.2012 4656799 197.0635 139.5064  1.75174554 19009"},{"OBJECT_ID":"2014-055BU","OBJECT_NAME":"ATLAS 5 CENTAUR DEB","NORAD_CAT_ID":"44013","OBJECT_TYPE":"DEBRIS","PERIOD":"858.716","INCLINATION":"22.0563","ECCENTRICITY":"0.44145000","MEAN_MOTION":"1.67692248","TLE_LINE1":"1 44013U 14055BU  21270.92427667 -.00000141  00000-0  00000-0 0  9999","TLE_LINE2":"2 44013  22.0563 336.5541 4414500 177.0078 186.8629  1.67692248   866"},{"OBJECT_ID":"2014-055BV","OBJECT_NAME":"ATLAS 5 CENTAUR DEB","NORAD_CAT_ID":"44014","OBJECT_TYPE":"DEBRIS","PERIOD":"748.514","INCLINATION":"21.3332","ECCENTRICITY":"0.51104410","MEAN_MOTION":"1.92381177","TLE_LINE1":"1 44014U 14055BV  21266.63780108 -.00000009  00000-0  00000-0 0  9998","TLE_LINE2":"2 44014  21.3332 290.3903 5110441 268.9552  34.6005  1.92381177 20805"},{"OBJECT_ID":"2014-055BW","OBJECT_NAME":"ATLAS 5 CENTAUR DEB","NORAD_CAT_ID":"44015","OBJECT_TYPE":"DEBRIS","PERIOD":"737.898","INCLINATION":"21.3282","ECCENTRICITY":"0.50791380","MEAN_MOTION":"1.95148953","TLE_LINE1":"1 44015U 14055BW  21269.87301165 -.00000363  00000-0  00000-0 0  9993","TLE_LINE2":"2 44015  21.3282 283.2736 5079138 279.8770  28.4677  1.95148953 20908"},{"OBJECT_ID":"2014-055BX","OBJECT_NAME":"ATLAS 5 CENTAUR DEB","NORAD_CAT_ID":"44016","OBJECT_TYPE":"DEBRIS","PERIOD":"782.887","INCLINATION":"21.4727","ECCENTRICITY":"0.47614160","MEAN_MOTION":"1.83934558","TLE_LINE1":"1 44016U 14055BX  21271.17238472 -.00000168  00000-0  00000-0 0  9993","TLE_LINE2":"2 44016  21.4727 311.3336 4761416 227.4822  80.9365  1.83934558 19711"},{"OBJECT_ID":"2019-007D","OBJECT_NAME":"ARIANE 5 DEB (SYLDA)","NORAD_CAT_ID":"44037","OBJECT_TYPE":"DEBRIS","PERIOD":"623.919","INCLINATION":"2.4322","ECCENTRICITY":"0.72581060","MEAN_MOTION":"2.30799258","TLE_LINE1":"1 44037U 19007D   21271.27024939  .00001321  00000-0  48174-3 0  9998","TLE_LINE2":"2 44037   2.4322 233.4334 7258106 259.9400  18.5069  2.30799258 22078"},{"OBJECT_ID":"2014-055BY","OBJECT_NAME":"ATLAS 5 CENTAUR DEB","NORAD_CAT_ID":"44038","OBJECT_TYPE":"DEBRIS","PERIOD":"815.265","INCLINATION":"21.8709","ECCENTRICITY":"0.45512680","MEAN_MOTION":"1.76629709","TLE_LINE1":"1 44038U 14055BY  21272.23573825 -.00000139  00000-0  00000+0 0  9996","TLE_LINE2":"2 44038  21.8709 327.0872 4551268 200.1240 133.6275  1.76629709 18831"},{"OBJECT_ID":"2014-055BZ","OBJECT_NAME":"ATLAS 5 CENTAUR DEB","NORAD_CAT_ID":"44039","OBJECT_TYPE":"DEBRIS","PERIOD":"760.172","INCLINATION":"21.4453","ECCENTRICITY":"0.48642240","MEAN_MOTION":"1.89430739","TLE_LINE1":"1 44039U 14055BZ  21267.37675867 -.00000152  00000-0  00000+0 0  9990","TLE_LINE2":"2 44039  21.4453 302.0595 4864224 247.5309  54.8501  1.89430739 19743"},{"OBJECT_ID":"2014-055CA","OBJECT_NAME":"ATLAS 5 CENTAUR DEB","NORAD_CAT_ID":"44040","OBJECT_TYPE":"DEBRIS","PERIOD":"765.628","INCLINATION":"21.4899","ECCENTRICITY":"0.48107950","MEAN_MOTION":"1.88080961","TLE_LINE1":"1 44040U 14055CA  21261.07216915 -.00000202  00000-0  00000-0 0  9995","TLE_LINE2":"2 44040  21.4899 305.9382 4810795 240.0526  63.7096  1.88080961 19259"},{"OBJECT_ID":"1989-061BU","OBJECT_NAME":"USA 40 R\/B DEB","NORAD_CAT_ID":"44055","OBJECT_TYPE":"DEBRIS","PERIOD":"152.114","INCLINATION":"56.9820","ECCENTRICITY":"0.27595380","MEAN_MOTION":"9.46657781","TLE_LINE1":"1 44055U 89061BU  21271.38948714  .00001388  00000-0  59295-3 0  9992","TLE_LINE2":"2 44055  56.9820 321.7754 2759538  79.9409 309.8093  9.46657781800492"},{"OBJECT_ID":"2014-055CB","OBJECT_NAME":"ATLAS 5 CENTAUR DEB","NORAD_CAT_ID":"44106","OBJECT_TYPE":"DEBRIS","PERIOD":"778.397","INCLINATION":"21.4860","ECCENTRICITY":"0.48276300","MEAN_MOTION":"1.84995624","TLE_LINE1":"1 44106U 14055CB  21267.26357712 -.00000159  00000-0  00000+0 0  9996","TLE_LINE2":"2 44106  21.4860 308.4589 4827630 233.9691  70.9566  1.84995624 17793"},{"OBJECT_ID":"2014-055CC","OBJECT_NAME":"ATLAS 5 CENTAUR DEB","NORAD_CAT_ID":"44107","OBJECT_TYPE":"DEBRIS","PERIOD":"818.930","INCLINATION":"22.0436","ECCENTRICITY":"0.46653450","MEAN_MOTION":"1.75839239","TLE_LINE1":"1 44107U 14055CC  21270.57108543 -.00000148  00000-0  00000-0 0  9990","TLE_LINE2":"2 44107  22.0436 329.2826 4665345 198.3551 136.5567  1.75839239 16223"}]